LEO EXPRESS 1           
1 58301U 23174AX  26068.76789509  .00017303  00000+0  49741-3 0  9998
2 58301  97.5222 152.4092 0078735 115.9210 245.0174 15.32756831129655
STARLINK-36423          
1 67448U 26008D   26068.43271001  .00025525  00000+0  93370-3 0  9998
2 67448  42.9989 206.6197 0001645 267.6574  92.4089 15.27585154  9538
